{"type": "FeatureCollection", "features": [ {"type": "Feature", "properties": {"norad_id": 30716, "name": "FENGYUN 1C DEB", "group": "fengyun-1c-debris", "lat": 0.3311590673392848, "lon": 4.971553707436511, "alt_km": 643.1979951750955, "timestamp": "2025-12-26T10:30:50.545942+00:00", "meta": {"OBJECT_NAME": "FENGYUN 1C DEB", "OBJECT_ID": "1999-025ASA", "EPOCH": "2025-12-25T00:18:46.259424", "MEAN_MOTION": 14.80011476, "ECCENTRICITY": 0.00206834, "INCLINATION": 98.8714, "RA_OF_ASC_NODE": 183.3469, "ARG_OF_PERICENTER": 43.1614, "MEAN_ANOMALY": 107.7886, "EPHEMERIS_TYPE": 0, "CLASSIFICATION_TYPE": "U", "NORAD_CAT_ID": 30716, "ELEMENT_SET_NO": 999, "REV_AT_EPOCH": 98005, "BSTAR": 0.003973683, "MEAN_MOTION_DOT": 0.0003024, "MEAN_MOTION_DDOT": 0}, "tle": {"line1": "1 30716U 99025ASA 25359.01303541  .00030240  00000+0  39737-2 0  9992", "line2": "2 30716  98.8714 183.3469 0020683  43.1614 107.7886 14.80011476980059"}}, "geometry": {"type": "Point", "coordinates": [4.971553707436511, 0.3311590673392848]}}, {"type": "Feature", "properties": {"norad_id": 30717, "name": "FENGYUN 1C DEB", "group": "fengyun-1c-debris", "lat": -14.885379219424811, "lon": 73.88059925212663, "alt_km": 848.6711586385527, "timestamp": "2025-12-26T10:30:50.545956+00:00", "meta": {"OBJECT_NAME": "FENGYUN 1C DEB", "OBJECT_ID": "1999-025ASB", "EPOCH": "2025-12-24T04:29:37.157568", "MEAN_MOTION": 14.20604613, "ECCENTRICITY": 0.00491208, "INCLINATION": 99.0161, "RA_OF_ASC_NODE": 69.1672, "ARG_OF_PERICENTER": 225.2588, "MEAN_ANOMALY": 134.4586, "EPHEMERIS_TYPE": 0, "CLASSIFICATION_TYPE": "U", "NORAD_CAT_ID": 30717, "ELEMENT_SET_NO": 999, "REV_AT_EPOCH": 96699, "BSTAR": 0.0014340874, "MEAN_MOTION_DOT": 3.078e-05, "MEAN_MOTION_DDOT": 0}, "tle": {"line1": "1 30717U 99025ASB 25358.18723562  .00003078  00000+0  14341-2 0  9992", "line2": "2 30717  99.0161  69.1672 0049120 225.2588 134.4586 14.20604613966992"}}, "geometry": {"type": "Point", "coordinates": [73.88059925212663, -14.885379219424811]}}, {"type": "Feature", "properties": {"norad_id": 30718, "name": "FENGYUN 1C DEB", "group": "fengyun-1c-debris", "lat": -61.85466377336722, "lon": -116.01206999804182, "alt_km": 841.1267509721074, "timestamp": "2025-12-26T10:30:50.545966+00:00", "meta": {"OBJECT_NAME": "FENGYUN 1C DEB", "OBJECT_ID": "1999-025ASC", "EPOCH": "2025-12-23T22:22:37.269120", "MEAN_MOTION": 14.24423886, "ECCENTRICITY": 0.0057063, "INCLINATION": 98.8901, "RA_OF_ASC_NODE": 78.4653, "ARG_OF_PERICENTER": 124.9351, "MEAN_ANOMALY": 235.7206, "EPHEMERIS_TYPE": 0, "CLASSIFICATION_TYPE": "U", "NORAD_CAT_ID": 30718, "ELEMENT_SET_NO": 999, "REV_AT_EPOCH": 96933, "BSTAR": 0.0015071, "MEAN_MOTION_DOT": 3.504e-05, "MEAN_MOTION_DDOT": 0}, "tle": {"line1": "1 30718U 99025ASC 25357.93237580  .00003504  00000+0  15071-2 0  9990", "line2": "2 30718  98.8901  78.4653 0057063 124.9351 235.7206 14.24423886969332"}}, "geometry": {"type": "Point", "coordinates": [-116.01206999804182, -61.85466377336722]}}, {"type": "Feature", "properties": {"norad_id": 30719, "name": "FENGYUN 1C DEB", "group": "fengyun-1c-debris", "lat": 5.978161437572447, "lon": -35.89447033610373, "alt_km": 689.3073254841765, "timestamp": "2025-12-26T10:30:50.545977+00:00", "meta": {"OBJECT_NAME": "FENGYUN 1C DEB", "OBJECT_ID": "1999-025ASD", "EPOCH": "2025-12-25T15:37:25.350240", "MEAN_MOTION": 14.59652737, "ECCENTRICITY": 0.0010392, "INCLINATION": 98.887, "RA_OF_ASC_NODE": 142.3241, "ARG_OF_PERICENTER": 159.5649, "MEAN_ANOMALY": 200.5967, "EPHEMERIS_TYPE": 0, "CLASSIFICATION_TYPE": "U", "NORAD_CAT_ID": 30719, "ELEMENT_SET_NO": 999, "REV_AT_EPOCH": 97637, "BSTAR": 0.0039033, "MEAN_MOTION_DOT": 0.00018599, "MEAN_MOTION_DDOT": 0}, "tle": {"line1": "1 30719U 99025ASD 25359.65098785  .00018599  00000+0  39033-2 0  9998", "line2": "2 30719  98.8870 142.3241 0010392 159.5649 200.5967 14.59652737976373"}}, "geometry": {"type": "Point", "coordinates": [-35.89447033610373, 5.978161437572447]}}, {"type": "Feature", "properties": {"norad_id": 30720, "name": "FENGYUN 1C DEB", "group": "fengyun-1c-debris", "lat": 44.1468783725118, "lon": 3.3114246931006717, "alt_km": 811.6250653957404, "timestamp": "2025-12-26T10:30:50.545987+00:00", "meta": {"OBJECT_NAME": "FENGYUN 1C DEB", "OBJECT_ID": "1999-025ASE", "EPOCH": "2025-12-25T00:51:41.809248", "MEAN_MOTION": 14.29148234, "ECCENTRICITY": 0.00323657, "INCLINATION": 99.0359, "RA_OF_ASC_NODE": 172.9733, "ARG_OF_PERICENTER": 293.0313, "MEAN_ANOMALY": 192.1103, "EPHEMERIS_TYPE": 0, "CLASSIFICATION_TYPE": "U", "NORAD_CAT_ID": 30720, "ELEMENT_SET_NO": 999, "REV_AT_EPOCH": 97664, "BSTAR": 0.00041523035, "MEAN_MOTION_DOT": 1.012e-05, "MEAN_MOTION_DDOT": 0}, "tle": {"line1": "1 30720U 99025ASE 25359.03590057  .00001012  00000+0  41523-3 0  9991", "line2": "2 30720  99.0359 172.9733 0032365 293.0313 192.1103 14.29148234976648"}}, "geometry": {"type": "Point", "coordinates": [3.3114246931006717, 44.1468783725118]}}, {"type": "Feature", "properties": {"norad_id": 30721, "name": "FENGYUN 1C DEB", "group": "fengyun-1c-debris", "lat": -31.09548399197918, "lon": 138.0132495942407, "alt_km": 642.2567666833183, "timestamp": "2025-12-26T10:30:50.545999+00:00", "meta": {"OBJECT_NAME": "FENGYUN 1C DEB", "OBJECT_ID": "1999-025ASF", "EPOCH": "2025-12-25T22:10:18.173280", "MEAN_MOTION": 14.72392215, "ECCENTRICITY": 0.0028528, "INCLINATION": 98.7096, "RA_OF_ASC_NODE": 132.1576, "ARG_OF_PERICENTER": 298.7932, "MEAN_ANOMALY": 185.3258, "EPHEMERIS_TYPE": 0, "CLASSIFICATION_TYPE": "U", "NORAD_CAT_ID": 30721, "ELEMENT_SET_NO": 999, "REV_AT_EPOCH": 98036, "BSTAR": 0.0032551, "MEAN_MOTION_DOT": 0.00020749, "MEAN_MOTION_DDOT": 0}, "tle": {"line1": "1 30721U 99025ASF 25359.92382145  .00020749  00000+0  32551-2 0  9995", "line2": "2 30721  98.7096 132.1576 0028528 298.7932 185.3258 14.72392215980368"}}, "geometry": {"type": "Point", "coordinates": [138.0132495942407, -31.09548399197918]}}, {"type": "Feature", "properties": {"norad_id": 30723, "name": "FENGYUN 1C DEB", "group": "fengyun-1c-debris", "lat": 49.231867772542145, "lon": -82.66158933515031, "alt_km": 749.5126104064693, "timestamp": "2025-12-26T10:30:50.546009+00:00", "meta": {"OBJECT_NAME": "FENGYUN 1C DEB", "OBJECT_ID": "1999-025ASH", "EPOCH": "2025-12-25T22:31:59.802240", "MEAN_MOTION": 14.41513379, "ECCENTRICITY": 0.0016474, "INCLINATION": 98.8426, "RA_OF_ASC_NODE": 86.4202, "ARG_OF_PERICENTER": 224.0373, "MEAN_ANOMALY": 196.9549, "EPHEMERIS_TYPE": 0, "CLASSIFICATION_TYPE": "U", "NORAD_CAT_ID": 30723, "ELEMENT_SET_NO": 999, "REV_AT_EPOCH": 97561, "BSTAR": 0.002157, "MEAN_MOTION_DOT": 6.977e-05, "MEAN_MOTION_DDOT": 0}, "tle": {"line1": "1 30723U 99025ASH 25359.93888660  .00006977  00000+0  21570-2 0  9997", "line2": "2 30723  98.8426  86.4202 0016474 224.0373 196.9549 14.41513379975618"}}, "geometry": {"type": "Point", "coordinates": [-82.66158933515031, 49.231867772542145]}}, {"type": "Feature", "properties": {"norad_id": 30724, "name": "FENGYUN 1C DEB", "group": "fengyun-1c-debris", "lat": -5.208612501650139, "lon": 5.384481474770021, "alt_km": 716.7979631238586, "timestamp": "2025-12-26T10:30:50.546020+00:00", "meta": {"OBJECT_NAME": "FENGYUN 1C DEB", "OBJECT_ID": "1999-025ASJ", "EPOCH": "2025-12-24T06:41:34.514880", "MEAN_MOTION": 14.37077528, "ECCENTRICITY": 0.00931299, "INCLINATION": 99.3156, "RA_OF_ASC_NODE": 183.9059, "ARG_OF_PERICENTER": 226.1302, "MEAN_ANOMALY": 315.2443, "EPHEMERIS_TYPE": 0, "CLASSIFICATION_TYPE": "U", "NORAD_CAT_ID": 30724, "ELEMENT_SET_NO": 999, "REV_AT_EPOCH": 98618, "BSTAR": 0.00042213285, "MEAN_MOTION_DOT": 1.264e-05, "MEAN_MOTION_DDOT": 0}, "tle": {"line1": "1 30724U 99025ASJ 25358.27887170  .00001264  00000+0  42213-3 0  9991", "line2": "2 30724  99.3156 183.9059 0093129 226.1302 315.2443 14.37077528986184"}}, "geometry": {"type": "Point", "coordinates": [5.384481474770021, -5.208612501650139]}}, {"type": "Feature", "properties": {"norad_id": 30725, "name": "FENGYUN 1C DEB", "group": "fengyun-1c-debris", "lat": 30.733264312332857, "lon": 63.99700044208242, "alt_km": 788.7675855424905, "timestamp": "2025-12-26T10:30:50.546030+00:00", "meta": {"OBJECT_NAME": "FENGYUN 1C DEB", "OBJECT_ID": "1999-025ASK", "EPOCH": "2025-12-26T03:50:05.399808", "MEAN_MOTION": 14.16132006, "ECCENTRICITY": 0.0086664, "INCLINATION": 99.006, "RA_OF_ASC_NODE": 69.1261, "ARG_OF_PERICENTER": 351.8021, "MEAN_ANOMALY": 60.8081, "EPHEMERIS_TYPE": 0, "CLASSIFICATION_TYPE": "U", "NORAD_CAT_ID": 30725, "ELEMENT_SET_NO": 999, "REV_AT_EPOCH": 96538, "BSTAR": 0.0011348, "MEAN_MOTION_DOT": 2.281e-05, "MEAN_MOTION_DDOT": 0}, "tle": {"line1": "1 30725U 99025ASK 25360.15978472  .00002281  00000+0  11348-2 0  9992", "line2": "2 30725  99.0060  69.1261 0086664 351.8021  60.8081 14.16132006965386"}}, "geometry": {"type": "Point", "coordinates": [63.99700044208242, 30.733264312332857]}}, {"type": "Feature", "properties": {"norad_id": 30726, "name": "FENGYUN 1C DEB", "group": "fengyun-1c-debris", "lat": 80.68166380861007, "lon": -81.75268208144676, "alt_km": 862.4444382089978, "timestamp": "2025-12-26T10:30:50.546042+00:00", "meta": {"OBJECT_NAME": "FENGYUN 1C DEB", "OBJECT_ID": "1999-025ASL", "EPOCH": "2025-12-26T00:13:21.868032", "MEAN_MOTION": 14.09349977, "ECCENTRICITY": 0.0078486, "INCLINATION": 99.2678, "RA_OF_ASC_NODE": 2.1366, "ARG_OF_PERICENTER": 189.1314, "MEAN_ANOMALY": 246.4287, "EPHEMERIS_TYPE": 0, "CLASSIFICATION_TYPE": "U", "NORAD_CAT_ID": 30726, "ELEMENT_SET_NO": 999, "REV_AT_EPOCH": 96170, "BSTAR": 0.0010257, "MEAN_MOTION_DOT": 1.793e-05, "MEAN_MOTION_DDOT": 0}, "tle": {"line1": "1 30726U 99025ASL 25360.00928088  .00001793  00000+0  10257-2 0  9990", "line2": "2 30726  99.2678   2.1366 0078486 189.1314 246.4287 14.09349977961708"}}, "geometry": {"type": "Point", "coordinates": [-81.75268208144676, 80.68166380861007]}}]}